start=new Date('2022-02-03T00:00:00.000Z').valueOf();
sats=[{"NORAD_CAT_ID":"45677","EPHEMERIS_TYPE":"0","MEAN_ELEMENT_THEORY":"SGP4","GP_ID":"195160584","RA_OF_ASC_NODE":"303.4812","REV_AT_EPOCH":"9321","FILE":"3290262","DECAY_DATE":null,"TLE_LINE1":"1 45677U 20035W   22033.45686017  .00008193  00000-0  56833-3 0  9995","INCLINATION":"53.0528","SEMIMAJOR_AXIS":"6925.364","OBJECT_TYPE":"PAYLOAD","MEAN_MOTION":"15.06395056","ECCENTRICITY":"0.00017990","MEAN_MOTION_DDOT":"0.0000000000000","COUNTRY_CODE":"US","TLE_LINE2":"2 45677  53.0528 303.4812 0001799  52.8521 307.2632 15.06395056 93212","RCS_SIZE":"LARGE","ARG_OF_PERICENTER":"52.8521","LAUNCH_DATE":"2020-06-04","CENTER_NAME":"EARTH","EPOCH":"2022-02-02T10:57:52.718688","TIME_SYSTEM":"UTC","OBJECT_ID":"2020-035W","OBJECT_NAME":"STARLINK-1392","BSTAR":"0.00056833000000","MEAN_MOTION_DOT":"0.00008193","MEAN_ANOMALY":"307.2632","SITE":"AFETR","PERIAPSIS":"545.983","CLASSIFICATION_TYPE":"U","ELEMENT_SET_NO":"999","APOAPSIS":"548.475","REF_FRAME":"TEME","PERIOD":"95.592"},{"OBJECT_TYPE":"PAYLOAD","SEMIMAJOR_AXIS":"6925.435","INCLINATION":"53.0548","DECAY_DATE":null,"TLE_LINE1":"1 45678U 20035X   22033.84851640 -.00001514  00000-0 -82847-4 0  9992","FILE":"3290513","REV_AT_EPOCH":"9339","RA_OF_ASC_NODE":"291.7058","GP_ID":"195191275","MEAN_ELEMENT_THEORY":"SGP4","EPHEMERIS_TYPE":"0","NORAD_CAT_ID":"45678","REF_FRAME":"TEME","PERIOD":"95.594","ELEMENT_SET_NO":"999","APOAPSIS":"548.450","CLASSIFICATION_TYPE":"U","PERIAPSIS":"546.151","SITE":"AFETR","OBJECT_ID":"2020-035X","OBJECT_NAME":"STARLINK-1393","BSTAR":"-0.00008284700000","MEAN_MOTION_DOT":"-0.00001514","MEAN_ANOMALY":"314.4980","TIME_SYSTEM":"UTC","EPOCH":"2022-02-02T20:21:51.816960","CENTER_NAME":"EARTH","ARG_OF_PERICENTER":"45.6145","LAUNCH_DATE":"2020-06-04","RCS_SIZE":"LARGE","TLE_LINE2":"2 45678  53.0548 291.7058 0001660  45.6145 314.4980 15.06371640 93393","MEAN_MOTION_DDOT":"0.0000000000000","COUNTRY_CODE":"US","MEAN_MOTION":"15.06371640","ECCENTRICITY":"0.00016600"},{"TLE_LINE2":"2 45679  53.0559 291.7022 0001538  74.1798 285.9360 15.06377564 93410","RCS_SIZE":"LARGE","MEAN_MOTION":"15.06377564","ECCENTRICITY":"0.00015380","MEAN_MOTION_DDOT":"0.0000000000000","COUNTRY_CODE":"US","CENTER_NAME":"EARTH","ARG_OF_PERICENTER":"74.1798","LAUNCH_DATE":"2020-06-04","SITE":"AFETR","PERIAPSIS":"546.217","TIME_SYSTEM":"UTC","EPOCH":"2022-02-02T20:27:08.871264","OBJECT_NAME":"STARLINK-1394","OBJECT_ID":"2020-035Y","MEAN_ANOMALY":"285.9360","MEAN_MOTION_DOT":"-0.00001716","BSTAR":"-0.00009639800000","ELEMENT_SET_NO":"999","APOAPSIS":"548.347","REF_FRAME":"TEME","PERIOD":"95.594","CLASSIFICATION_TYPE":"U","EPHEMERIS_TYPE":"0","NORAD_CAT_ID":"45679","RA_OF_ASC_NODE":"291.7022","REV_AT_EPOCH":"9341","MEAN_ELEMENT_THEORY":"SGP4","GP_ID":"195189524","FILE":"3290513","DECAY_DATE":null,"TLE_LINE1":"1 45679U 20035Y   22033.85218601 -.00001716  00000-0 -96398-4 0  9998","OBJECT_TYPE":"PAYLOAD","SEMIMAJOR_AXIS":"6925.417","INCLINATION":"53.0559"},{"REV_AT_EPOCH":"9329","RA_OF_ASC_NODE":"294.9451","GP_ID":"195160334","MEAN_ELEMENT_THEORY":"SGP4","EPHEMERIS_TYPE":"0","NORAD_CAT_ID":"45680","OBJECT_TYPE":"PAYLOAD","SEMIMAJOR_AXIS":"6925.357","INCLINATION":"53.0551","DECAY_DATE":null,"TLE_LINE1":"1 45680U 20035Z   22033.12973423 -.00000127  00000-0  10381-4 0  9992","FILE":"3290262","CENTER_NAME":"EARTH","ARG_OF_PERICENTER":"69.0145","LAUNCH_DATE":"2020-06-04","RCS_SIZE":"LARGE","TLE_LINE2":"2 45680  53.0551 294.9451 0001833  69.0145 291.1040 15.06397108 93298","MEAN_MOTION_DDOT":"0.0000000000000","COUNTRY_CODE":"US","MEAN_MOTION":"15.06397108","ECCENTRICITY":"0.00018330","REF_FRAME":"TEME","PERIOD":"95.592","ELEMENT_SET_NO":"999","APOAPSIS":"548.492","CLASSIFICATION_TYPE":"U","PERIAPSIS":"545.953","SITE":"AFETR","OBJECT_ID":"2020-035Z","OBJECT_NAME":"STARLINK-1395","MEAN_MOTION_DOT":"-0.00000127","MEAN_ANOMALY":"291.1040","BSTAR":"0.00001038100000","TIME_SYSTEM":"UTC","EPOCH":"2022-02-02T03:06:49.037472"},{"COUNTRY_CODE":"US","MEAN_MOTION_DDOT":"0.0000000000000","ECCENTRICITY":"0.00018370","MEAN_MOTION":"15.06392348","TLE_LINE2":"2 45681  53.0529 291.6685 0001837  67.6997 292.4187 15.06392348 93411","RCS_SIZE":"LARGE","LAUNCH_DATE":"2020-06-04","ARG_OF_PERICENTER":"67.6997","CENTER_NAME":"EARTH","MEAN_ANOMALY":"292.4187","MEAN_MOTION_DOT":"0.00000770","BSTAR":"0.00007063800000","OBJECT_ID":"2020-035AA","OBJECT_NAME":"STARLINK-1396","TIME_SYSTEM":"UTC","EPOCH":"2022-02-02T20:32:26.920032","PERIAPSIS":"545.965","SITE":"AFETR","CLASSIFICATION_TYPE":"U","PERIOD":"95.593","REF_FRAME":"TEME","APOAPSIS":"548.509","ELEMENT_SET_NO":"999","NORAD_CAT_ID":"45681","EPHEMERIS_TYPE":"0","GP_ID":"195191025","MEAN_ELEMENT_THEORY":"SGP4","REV_AT_EPOCH":"9341","RA_OF_ASC_NODE":"291.6685","TLE_LINE1":"1 45681U 20035AA  22033.85586713  .00000770  00000-0  70638-4 0  9999","DECAY_DATE":null,"FILE":"3290513","SEMIMAJOR_AXIS":"6925.372","INCLINATION":"53.0529","OBJECT_TYPE":"PAYLOAD"},{"PERIAPSIS":"546.017","SITE":"AFETR","MEAN_MOTION_DOT":"0.00002740","MEAN_ANOMALY":"300.6058","BSTAR":"0.00020289000000","OBJECT_NAME":"STARLINK-1397","OBJECT_ID":"2020-035AB","TIME_SYSTEM":"UTC","EPOCH":"2022-02-02T20:43:04.835424","PERIOD":"95.593","REF_FRAME":"TEME","APOAPSIS":"548.510","ELEMENT_SET_NO":"999","CLASSIFICATION_TYPE":"U","TLE_LINE2":"2 45682  53.0537 291.6416 0001800  59.5109 300.6058 15.06383728 93408","RCS_SIZE":"LARGE","COUNTRY_CODE":"US","MEAN_MOTION_DDOT":"0.0000000000000","ECCENTRICITY":"0.00018000","MEAN_MOTION":"15.06383728","CENTER_NAME":"EARTH","LAUNCH_DATE":"2020-06-04","ARG_OF_PERICENTER":"59.5109","TLE_LINE1":"1 45682U 20035AB  22033.86325041  .00002740  00000-0  20289-3 0  9991","DECAY_DATE":null,"FILE":"3290513","OBJECT_TYPE":"PAYLOAD","SEMIMAJOR_AXIS":"6925.398","INCLINATION":"53.0537","EPHEMERIS_TYPE":"0","NORAD_CAT_ID":"45682","REV_AT_EPOCH":"9340","RA_OF_ASC_NODE":"291.6416","GP_ID":"195190776","MEAN_ELEMENT_THEORY":"SGP4"},{"RCS_SIZE":"LARGE","TLE_LINE2":"2 45683  53.0551 292.3327 0001714  62.0492 298.0671 15.06392936 93392","COUNTRY_CODE":"US","MEAN_MOTION_DDOT":"0.0000000000000","ECCENTRICITY":"0.00017140","MEAN_MOTION":"15.06392936","CENTER_NAME":"EARTH","LAUNCH_DATE":"2020-06-04","ARG_OF_PERICENTER":"62.0492","PERIAPSIS":"546.048","SITE":"AFETR","MEAN_MOTION_DOT":"0.00001523","BSTAR":"0.00012115000000","MEAN_ANOMALY":"298.0671","OBJECT_ID":"2020-035AC","OBJECT_NAME":"STARLINK-1399","TIME_SYSTEM":"UTC","EPOCH":"2022-02-02T17:05:26.618496","PERIOD":"95.593","REF_FRAME":"TEME","APOAPSIS":"548.422","ELEMENT_SET_NO":"999","CLASSIFICATION_TYPE":"U","EPHEMERIS_TYPE":"0","NORAD_CAT_ID":"45683","REV_AT_EPOCH":"9339","RA_OF_ASC_NODE":"292.3327","GP_ID":"195190024","MEAN_ELEMENT_THEORY":"SGP4","TLE_LINE1":"1 45683U 20035AC  22033.71211364  .00001523  00000-0  12115-3 0  9995","DECAY_DATE":null,"FILE":"3290513","OBJECT_TYPE":"PAYLOAD","SEMIMAJOR_AXIS":"6925.370","INCLINATION":"53.0551"},{"ARG_OF_PERICENTER":"68.5309","LAUNCH_DATE":"2020-06-04","CENTER_NAME":"EARTH","MEAN_MOTION_DDOT":"0.0000000000000","COUNTRY_CODE":"US","MEAN_MOTION":"15.06387449","ECCENTRICITY":"0.00016430","TLE_LINE2":"2 45684  53.0543 291.5299 0001643  68.5309 291.5855 15.06387449 93421","RCS_SIZE":"LARGE","CLASSIFICATION_TYPE":"U","REF_FRAME":"TEME","PERIOD":"95.593","ELEMENT_SET_NO":"999","APOAPSIS":"548.390","OBJECT_NAME":"STARLINK-1401","OBJECT_ID":"2020-035AD","MEAN_MOTION_DOT":"0.00000668","BSTAR":"0.00006373800000","MEAN_ANOMALY":"291.5855","EPOCH":"2022-02-02T21:20:13.370496","TIME_SYSTEM":"UTC","PERIAPSIS":"546.114","SITE":"AFETR","GP_ID":"195190274","MEAN_ELEMENT_THEORY":"SGP4","REV_AT_EPOCH":"9342","RA_OF_ASC_NODE":"291.5299","EPHEMERIS_TYPE":"0","NORAD_CAT_ID":"45684","INCLINATION":"53.0543","SEMIMAJOR_AXIS":"6925.387","OBJECT_TYPE":"PAYLOAD","DECAY_DATE":null,"TLE_LINE1":"1 45684U 20035AD  22033.88904364  .00000668  00000-0  63738-4 0  9990","FILE":"3290513"},{"CENTER_NAME":"EARTH","ARG_OF_PERICENTER":"56.4932","LAUNCH_DATE":"2020-06-04","TLE_LINE2":"2 45685  53.0545 291.5602 0001766  56.4932 303.6225 15.06401393 93427","RCS_SIZE":"LARGE","MEAN_MOTION":"15.06401393","ECCENTRICITY":"0.00017660","MEAN_MOTION_DDOT":"0.0000000000000","COUNTRY_CODE":"US","ELEMENT_SET_NO":"999","APOAPSIS":"548.432","REF_FRAME":"TEME","PERIOD":"95.592","CLASSIFICATION_TYPE":"U","SITE":"AFETR","PERIAPSIS":"545.986","TIME_SYSTEM":"UTC","EPOCH":"2022-02-02T21:14:53.911680","OBJECT_NAME":"STARLINK-1402","OBJECT_ID":"2020-035AE","MEAN_MOTION_DOT":"0.00001754","MEAN_ANOMALY":"303.6225","BSTAR":"0.00013664000000","RA_OF_ASC_NODE":"291.5602","REV_AT_EPOCH":"9342","MEAN_ELEMENT_THEORY":"SGP4","GP_ID":"195190526","EPHEMERIS_TYPE":"0","NORAD_CAT_ID":"45685","OBJECT_TYPE":"PAYLOAD","INCLINATION":"53.0545","SEMIMAJOR_AXIS":"6925.344","FILE":"3290513","DECAY_DATE":null,"TLE_LINE1":"1 45685U 20035AE  22033.88534620  .00001754  00000-0  13664-3 0  9994"},{"RCS_SIZE":"LARGE","TLE_LINE2":"2 45686  53.0546 293.6638 0001707  60.0560 300.0598 15.06391717 93358","MEAN_MOTION":"15.06391717","ECCENTRICITY":"0.00017070","MEAN_MOTION_DDOT":"0.0000000000000","COUNTRY_CODE":"US","CENTER_NAME":"EARTH","ARG_OF_PERICENTER":"60.0560","LAUNCH_DATE":"2020-06-04","SITE":"AFETR","PERIAPSIS":"546.057","EPOCH":"2022-02-02T09:55:31.269504","TIME_SYSTEM":"UTC","OBJECT_NAME":"STARLINK-1404","OBJECT_ID":"2020-035AF","MEAN_MOTION_DOT":"-0.00000502","BSTAR":"-0.00001477700000","MEAN_ANOMALY":"300.0598","ELEMENT_SET_NO":"999","APOAPSIS":"548.421","REF_FRAME":"TEME","PERIOD":"95.593","CLASSIFICATION_TYPE":"U","EPHEMERIS_TYPE":"0","NORAD_CAT_ID":"45686","RA_OF_ASC_NODE":"293.6638","REV_AT_EPOCH":"9335","MEAN_ELEMENT_THEORY":"SGP4","GP_ID":"195159333","FILE":"3290262","DECAY_DATE":null,"TLE_LINE1":"1 45686U 20035AF  22033.41355636 -.00000502  00000-0 -14777-4 0  9991","OBJECT_TYPE":"PAYLOAD","INCLINATION":"53.0546","SEMIMAJOR_AXIS":"6925.374"}];
